ONEWEB-0220             
1 48232U 21031Y   26049.20053528  .00000013  00000+0  10501-5 0  9997
2 48232  87.9025 313.4225 0001936  76.5302 283.6043 13.14504025232776
ONEWEB-0165             
1 48233U 21031Z   26049.22908320 -.00000057  00000+0 -18692-3 0  9996
2 48233  87.9013 313.4342 0001813  87.4398 272.6939 13.14504853232731
ONEWEB-0199             
1 48234U 21031AA  26049.21322142 -.00000147  00000+0 -43059-3 0  9993
2 48234  87.9019 313.4191 0001563  74.3046 285.8256 13.14504717232633
ONEWEB-0203             
1 48235U 21031AB  26049.20370736  .00000010  00000+0 -77616-5 0  9991
2 48235  87.9021 313.4198 0001582  89.0247 271.1064 13.14501400232643
ONEWEB-0197             
1 48236U 21031AC  26049.25431867  .00000203  00000+0  51412-3 0  9997
2 48236  87.9018 313.4099 0001819  68.6278 291.5046 13.14504783232564
ONEWEB-0194             
1 48237U 21031AD  26049.23383219 -.00000021  00000+0 -90338-4 0  9994
2 48237  87.9016 313.4312 0001467  78.4888 281.6407 13.14501011232737
ONEWEB-0193             
1 48238U 21031AE  26049.24969902  .00000218  00000+0  55230-3 0  9992
2 48238  87.9017 313.4203 0001220  74.9760 285.1505 13.14505212232684
ONEWEB-0191             
1 48239U 21031AF  26049.26079816  .00000256  00000+0  65615-3 0  9991
2 48239  87.9024 313.4127 0001634  75.7031 284.4280 13.14504589232540
ONEWEB-0195             
1 48240U 21031AG  26049.23779704 -.00000054  00000+0 -18064-3 0  9997
2 48240  87.9017 313.4144 0001908  88.0477 272.0871 13.14504297232521
ONEWEB-0201             
1 48241U 21031AH  26049.22604474 -.00000129  00000+0 -38157-3 0  9996
2 48241  87.9008 313.4474 0002014  75.2855 284.8498 13.14503871232753
ONEWEB-0207             
1 48242U 21031AJ  26049.20608328 -.00000075  00000+0 -23733-3 0  9991
2 48242  87.9021 313.4211 0001901  75.6090 284.5250 13.14504528232660
ONEWEB-0208             
1 48243U 21031AK  26049.26396824  .00000241  00000+0  61474-3 0  9990
2 48243  87.9019 313.4224 0001795  87.6851 272.4484 13.14504572232687
ONEWEB-0200             
1 48244U 21031AL  26049.22749491 -.00000091  00000+0 -28106-3 0  9999
2 48244  87.9016 313.4189 0001800  79.3101 280.8231 13.14504028232609
ONEWEB-0217             
1 48245U 21031AM  26049.16723792  .00000245  00000+0  62749-3 0  9999
2 48245  87.9020 313.4297 0001866  88.1135 272.0209 13.14504413232541
ONEWEB-0211             
1 48767U 21045A   26049.14246050 -.00000019  00000+0 -83222-4 0  9999
2 48767  87.8970 282.8767 0001648 102.0841 258.0474 13.16142405228782
ONEWEB-0223             
1 48768U 21045B   26049.16353801  .00000169  00000+0  41374-3 0  9990
2 48768  87.8967 282.9499 0001394 102.6026 257.5261 13.15550598228751
