[{"OBJECT_NAME":"ONEWEB-0220","OBJECT_ID":"2021-031Y","EPOCH":"2026-02-18T04:48:46.248192","MEAN_MOTION":13.14504025,"ECCENTRICITY":0.00019362,"INCLINATION":87.9025,"RA_OF_ASC_NODE":313.4225,"ARG_OF_PERICENTER":76.5302,"MEAN_ANOMALY":283.6043,"EPHEMERIS_TYPE":0,"CLASSIFICATION_TYPE":"U","NORAD_CAT_ID":48232,"ELEMENT_SET_NO":999,"REV_AT_EPOCH":23277,"BSTAR":1.05007e-6,"MEAN_MOTION_DOT":1.3e-7,"MEAN_MOTION_DDOT":0},{"OBJECT_NAME":"ONEWEB-0165","OBJECT_ID":"2021-031Z","EPOCH":"2026-02-18T05:29:52.788480","MEAN_MOTION":13.14504853,"ECCENTRICITY":0.00018138,"INCLINATION":87.9013,"RA_OF_ASC_NODE":313.4342,"ARG_OF_PERICENTER":87.4398,"MEAN_ANOMALY":272.6939,"EPHEMERIS_TYPE":0,"CLASSIFICATION_TYPE":"U","NORAD_CAT_ID":48233,"ELEMENT_SET_NO":999,"REV_AT_EPOCH":23273,"BSTAR":-0.00018691666,"MEAN_MOTION_DOT":-5.7e-7,"MEAN_MOTION_DDOT":0},{"OBJECT_NAME":"ONEWEB-0199","OBJECT_ID":"2021-031AA","EPOCH":"2026-02-18T05:07:02.330688","MEAN_MOTION":13.14504717,"ECCENTRICITY":0.00015633,"INCLINATION":87.9019,"RA_OF_ASC_NODE":313.4191,"ARG_OF_PERICENTER":74.3046,"MEAN_ANOMALY":285.8256,"EPHEMERIS_TYPE":0,"CLASSIFICATION_TYPE":"U","NORAD_CAT_ID":48234,"ELEMENT_SET_NO":999,"REV_AT_EPOCH":23263,"BSTAR":-0.00043058755,"MEAN_MOTION_DOT":-1.47e-6,"MEAN_MOTION_DDOT":0},{"OBJECT_NAME":"ONEWEB-0203","OBJECT_ID":"2021-031AB","EPOCH":"2026-02-18T04:53:20.315904","MEAN_MOTION":13.145014,"ECCENTRICITY":0.00015827,"INCLINATION":87.9021,"RA_OF_ASC_NODE":313.4198,"ARG_OF_PERICENTER":89.0247,"MEAN_ANOMALY":271.1064,"EPHEMERIS_TYPE":0,"CLASSIFICATION_TYPE":"U","NORAD_CAT_ID":48235,"ELEMENT_SET_NO":999,"REV_AT_EPOCH":23264,"BSTAR":-7.761609e-6,"MEAN_MOTION_DOT":1.0e-7,"MEAN_MOTION_DDOT":0},{"OBJECT_NAME":"ONEWEB-0197","OBJECT_ID":"2021-031AC","EPOCH":"2026-02-18T06:06:13.133088","MEAN_MOTION":13.14504783,"ECCENTRICITY":0.0001819,"INCLINATION":87.9018,"RA_OF_ASC_NODE":313.4099,"ARG_OF_PERICENTER":68.6278,"MEAN_ANOMALY":291.5046,"EPHEMERIS_TYPE":0,"CLASSIFICATION_TYPE":"U","NORAD_CAT_ID":48236,"ELEMENT_SET_NO":999,"REV_AT_EPOCH":23256,"BSTAR":0.00051411769,"MEAN_MOTION_DOT":2.03e-6,"MEAN_MOTION_DDOT":0},{"OBJECT_NAME":"ONEWEB-0194","OBJECT_ID":"2021-031AD","EPOCH":"2026-02-18T05:36:43.101216","MEAN_MOTION":13.14501011,"ECCENTRICITY":0.00014678,"INCLINATION":87.9016,"RA_OF_ASC_NODE":313.4312,"ARG_OF_PERICENTER":78.4888,"MEAN_ANOMALY":281.6407,"EPHEMERIS_TYPE":0,"CLASSIFICATION_TYPE":"U","NORAD_CAT_ID":48237,"ELEMENT_SET_NO":999,"REV_AT_EPOCH":23273,"BSTAR":-9.0337715e-5,"MEAN_MOTION_DOT":-2.1e-7,"MEAN_MOTION_DDOT":0},{"OBJECT_NAME":"ONEWEB-0193","OBJECT_ID":"2021-031AE","EPOCH":"2026-02-18T05:59:33.995328","MEAN_MOTION":13.14505212,"ECCENTRICITY":0.00012202,"INCLINATION":87.9017,"RA_OF_ASC_NODE":313.4203,"ARG_OF_PERICENTER":74.976,"MEAN_ANOMALY":285.1505,"EPHEMERIS_TYPE":0,"CLASSIFICATION_TYPE":"U","NORAD_CAT_ID":48238,"ELEMENT_SET_NO":999,"REV_AT_EPOCH":23268,"BSTAR":0.00055230487,"MEAN_MOTION_DOT":2.18e-6,"MEAN_MOTION_DDOT":0},{"OBJECT_NAME":"ONEWEB-0191","OBJECT_ID":"2021-031AF","EPOCH":"2026-02-18T06:15:32.961024","MEAN_MOTION":13.14504589,"ECCENTRICITY":0.00016342,"INCLINATION":87.9024,"RA_OF_ASC_NODE":313.4127,"ARG_OF_PERICENTER":75.7031,"MEAN_ANOMALY":284.428,"EPHEMERIS_TYPE":0,"CLASSIFICATION_TYPE":"U","NORAD_CAT_ID":48239,"ELEMENT_SET_NO":999,"REV_AT_EPOCH":23254,"BSTAR":0.0006561465,"MEAN_MOTION_DOT":2.56e-6,"MEAN_MOTION_DDOT":0},{"OBJECT_NAME":"ONEWEB-0195","OBJECT_ID":"2021-031AG","EPOCH":"2026-02-18T05:42:25.664256","MEAN_MOTION":13.14504297,"ECCENTRICITY":0.00019081,"INCLINATION":87.9017,"RA_OF_ASC_NODE":313.4144,"ARG_OF_PERICENTER":88.0477,"MEAN_ANOMALY":272.0871,"EPHEMERIS_TYPE":0,"CLASSIFICATION_TYPE":"U","NORAD_CAT_ID":48240,"ELEMENT_SET_NO":999,"REV_AT_EPOCH":23252,"BSTAR":-0.00018064146,"MEAN_MOTION_DOT":-5.4e-7,"MEAN_MOTION_DDOT":0},{"OBJECT_NAME":"ONEWEB-0201","OBJECT_ID":"2021-031AH","EPOCH":"2026-02-18T05:25:30.265536","MEAN_MOTION":13.14503871,"ECCENTRICITY":0.00020147,"INCLINATION":87.9008,"RA_OF_ASC_NODE":313.4474,"ARG_OF_PERICENTER":75.2855,"MEAN_ANOMALY":284.8498,"EPHEMERIS_TYPE":0,"CLASSIFICATION_TYPE":"U","NORAD_CAT_ID":48241,"ELEMENT_SET_NO":999,"REV_AT_EPOCH":23275,"BSTAR":-0.00038156702,"MEAN_MOTION_DOT":-1.29e-6,"MEAN_MOTION_DDOT":0},{"OBJECT_NAME":"ONEWEB-0207","OBJECT_ID":"2021-031AJ","EPOCH":"2026-02-18T04:56:45.595392","MEAN_MOTION":13.14504528,"ECCENTRICITY":0.00019018,"INCLINATION":87.9021,"RA_OF_ASC_NODE":313.4211,"ARG_OF_PERICENTER":75.609,"MEAN_ANOMALY":284.525,"EPHEMERIS_TYPE":0,"CLASSIFICATION_TYPE":"U","NORAD_CAT_ID":48242,"ELEMENT_SET_NO":999,"REV_AT_EPOCH":23266,"BSTAR":-0.00023732911,"MEAN_MOTION_DOT":-7.5e-7,"MEAN_MOTION_DDOT":0},{"OBJECT_NAME":"ONEWEB-0208","OBJECT_ID":"2021-031AK","EPOCH":"2026-02-18T06:20:06.855936","MEAN_MOTION":13.14504572,"ECCENTRICITY":0.00017955,"INCLINATION":87.9019,"RA_OF_ASC_NODE":313.4224,"ARG_OF_PERICENTER":87.6851,"MEAN_ANOMALY":272.4484,"EPHEMERIS_TYPE":0,"CLASSIFICATION_TYPE":"U","NORAD_CAT_ID":48243,"ELEMENT_SET_NO":999,"REV_AT_EPOCH":23268,"BSTAR":0.00061474324,"MEAN_MOTION_DOT":2.41e-6,"MEAN_MOTION_DDOT":0},{"OBJECT_NAME":"ONEWEB-0200","OBJECT_ID":"2021-031AL","EPOCH":"2026-02-18T05:27:35.560224","MEAN_MOTION":13.14504028,"ECCENTRICITY":0.00018,"INCLINATION":87.9016,"RA_OF_ASC_NODE":313.4189,"ARG_OF_PERICENTER":79.3101,"MEAN_ANOMALY":280.8231,"EPHEMERIS_TYPE":0,"CLASSIFICATION_TYPE":"U","NORAD_CAT_ID":48244,"ELEMENT_SET_NO":999,"REV_AT_EPOCH":23260,"BSTAR":-0.00028106313,"MEAN_MOTION_DOT":-9.1e-7,"MEAN_MOTION_DDOT":0},{"OBJECT_NAME":"ONEWEB-0217","OBJECT_ID":"2021-031AM","EPOCH":"2026-02-18T04:00:49.356288","MEAN_MOTION":13.14504413,"ECCENTRICITY":0.00018662,"INCLINATION":87.902,"RA_OF_ASC_NODE":313.4297,"ARG_OF_PERICENTER":88.1135,"MEAN_ANOMALY":272.0209,"EPHEMERIS_TYPE":0,"CLASSIFICATION_TYPE":"U","NORAD_CAT_ID":48245,"ELEMENT_SET_NO":999,"REV_AT_EPOCH":23254,"BSTAR":0.00062749009,"MEAN_MOTION_DOT":2.45e-6,"MEAN_MOTION_DDOT":0},{"OBJECT_NAME":"ONEWEB-0211","OBJECT_ID":"2021-045A","EPOCH":"2026-02-18T03:25:08.587200","MEAN_MOTION":13.16142405,"ECCENTRICITY":0.00016484,"INCLINATION":87.897,"RA_OF_ASC_NODE":282.8767,"ARG_OF_PERICENTER":102.0841,"MEAN_ANOMALY":258.0474,"EPHEMERIS_TYPE":0,"CLASSIFICATION_TYPE":"U","NORAD_CAT_ID":48767,"ELEMENT_SET_NO":999,"REV_AT_EPOCH":22878,"BSTAR":-8.3222209e-5,"MEAN_MOTION_DOT":-1.9e-7,"MEAN_MOTION_DDOT":0},{"OBJECT_NAME":"ONEWEB-0223","OBJECT_ID":"2021-045B","EPOCH":"2026-02-18T03:55:29.684064","MEAN_MOTION":13.15550598,"ECCENTRICITY":0.00013948,"INCLINATION":87.8967,"RA_OF_ASC_NODE":282.9499,"ARG_OF_PERICENTER":102.6026,"MEAN_ANOMALY":257.5261,"EPHEMERIS_TYPE":0,"CLASSIFICATION_TYPE":"U","NORAD_CAT_ID":48768,"ELEMENT_SET_NO":999,"REV_AT_EPOCH":22875,"BSTAR":0.00041373762,"MEAN_MOTION_DOT":1.69e-6,"MEAN_MOTION_DDOT":0}]
